BEIDOU-3 M28            
1 58654U 23207A   26158.09706559 -.00000041  00000+0  00000+0 0  9999
2 58654  55.7441  62.6437 0003551 343.1686  16.8477  1.86229766 16657
BEIDOU-3 M26            
1 58655U 23207B   26157.89456170 -.00000041  00000+0  00000+0 0  9998
2 58655  55.7459  62.6370 0003491 317.5476  42.4536  1.86229767 16638
GSAT0225 (GALILEO 29)   
1 59598U 24079A   26157.55442148  .00000022  00000+0  00000+0 0  9994
2 59598  55.1131 101.3778 0001833 289.9052 250.1947  1.70474149 13134
GSAT0227 (GALILEO 30)   
1 59600U 24079C   26155.09799679  .00000011  00000+0  00000+0 0  9997
2 59600  55.1072 101.4444 0001821  42.0743 317.8998  1.70474129 13141
GSAT0232 (GALILEO 32)   
1 61182U 24167A   26158.29008150  .00000042  00000+0  00000+0 0  9999
2 61182  55.1876 221.5858 0005946 224.5135 150.0891  1.70474499 10717
GSAT0226 (GALILEO 31)   
1 61183U 24167B   26158.14736404  .00000042  00000+0  00000+0 0  9994
2 61183  55.1864 221.5969 0002714 222.1795 156.1712  1.70474460 10687
BEIDOU-3 M25            
1 61186U 24168B   26158.29117520 -.00000056  00000+0  00000+0 0  9992
2 61186  54.4830 302.5870 0003050 304.9980  78.2369  1.86230173 11608
BEIDOU-3 M27            
1 61187U 24168C   26156.98532191 -.00000055  00000+0  00000+0 0  9991
2 61187  54.4796 302.6153 0001749  47.7222 315.0311  1.86230323  9051
NAVSTAR 83 (USA 440)    
1 62339U 24242A   26157.87246404 -.00000064  00000+0  00000+0 0  9992
2 62339  54.8526 334.6000 0017392   4.1910 356.8034  2.00571511 11056
QZS-6 (MICHIBIKI-6)     
1 62876U 25023A   26158.14964693 -.00000220  00000+0  00000+0 0  9998
2 62876   0.0270  46.5126 0002044  37.0175 316.3924  1.00274396  4843
COSMOS 2584 [GLONASS-K2]
1 63130U 25042A   26155.93958162 -.00000009  00000+0  00000+0 0  9996
2 63130  65.0776  73.2182 0005831 229.2014 130.7692  2.13103948  9789
NAVSTAR 84 (USA 545)    
1 64202U 25116A   26155.36633038 -.00000073  00000+0  00000+0 0  9999
2 64202  55.2259  31.6468 0008452 337.8257 196.1658  2.00577081  7616
COSMOS 2596 [GLONASS-K1]
1 65590U 25206B   26158.13517353 -.00000030  00000+0  00000+0 0  9992
2 65590  64.6408 315.3359 0011132 313.3612  47.4600  2.13100798  5705
GSAT0233 (GALILEO 33)   
1 67160U 25302A   26157.66258742  .00000023  00000+0  00000+0 0  9996
2 67160  54.3305 102.4316 0001324 236.8649 300.4651  1.70474269  2941
GSAT0234 (GALILEO 34)   
1 67162U 25302C   26154.85627277  .00000010  00000+0  00000+0 0  9995
2 67162  54.3286 102.5103 0003271 302.9496 132.1778  1.70474390  2950
NAVSTAR 85 (USA 581)    
1 67588U 26017A   26156.23183609  .00000004  00000+0  00000+0 0  9994
2 67588  55.0812  89.2351 0022663 257.5579 102.1794  2.00571538431377
NAVSTAR 86 (USA 585)    
1 68791U 26087A   26156.43970229  .00000045  00000+0  00000+0 0  9997
2 68791  54.9639 208.2526 0020960 107.2589 248.2165  2.00569475   593
